[{"OBJECT_NAME":"STARLINK-31366","OBJECT_ID":"2024-064F","EPOCH":"2026-03-09T00:33:14.520672","MEAN_MOTION":15.27585402,"ECCENTRICITY":1.693e-5,"INCLINATION":42.9984,"RA_OF_ASC_NODE":59.9515,"ARG_OF_PERICENTER":94.417,"MEAN_ANOMALY":265.67,"EPHEMERIS_TYPE":0,"CLASSIFICATION_TYPE":"U","NORAD_CAT_ID":59403,"ELEMENT_SET_NO":999,"REV_AT_EPOCH":10912,"BSTAR":-0.00012422092,"MEAN_MOTION_DOT":-3.679e-5,"MEAN_MOTION_DDOT":0},{"OBJECT_NAME":"OBJECT D","OBJECT_ID":"2025-197D","EPOCH":"2026-03-09T23:30:56.303712","MEAN_MOTION":15.25287442,"ECCENTRICITY":0.00144425,"INCLINATION":97.4091,"RA_OF_ASC_NODE":257.3677,"ARG_OF_PERICENTER":3.398,"MEAN_ANOMALY":356.7353,"EPHEMERIS_TYPE":0,"CLASSIFICATION_TYPE":"U","NORAD_CAT_ID":65491,"ELEMENT_SET_NO":999,"REV_AT_EPOCH":2822,"BSTAR":0.00037200129,"MEAN_MOTION_DOT":9.321e-5,"MEAN_MOTION_DDOT":0}]
